start=new Date('2021-12-07T00:00:00.000Z').valueOf();
sats=[{"MEAN_ELEMENT_THEORY":"SGP4","TLE_LINE2":"2 48035  53.0513   3.3677 0000857  34.7121 293.3024 15.90904500  3709","MEAN_MOTION":"15.90904500","ECCENTRICITY":"0.00008570","MEAN_MOTION_DDOT":"0.0000112560000","REV_AT_EPOCH":"370","MEAN_ANOMALY":"293.3024","SEMIMAJOR_AXIS":"6677.888","REF_FRAME":"TEME","BSTAR":"0.00007461600000","MEAN_MOTION_DOT":"0.00020490","OBJECT_NAME":"STARLINK-2287","NORAD_CAT_ID":"48035","OBJECT_TYPE":"PAYLOAD","LAUNCH_DATE":"2021-03-24","COUNTRY_CODE":"US","INCLINATION":"53.0513","EPHEMERIS_TYPE":"0","ELEMENT_SET_NO":"999","TIME_SYSTEM":"UTC","CLASSIFICATION_TYPE":"U","DECAY_DATE":null,"ARG_OF_PERICENTER":"34.7121","PERIAPSIS":"299.180","CENTER_NAME":"EARTH","FILE":"3234296","EPOCH":"2021-12-06T22:00:00.999936","RA_OF_ASC_NODE":"3.3677","PERIOD":"90.515","APOAPSIS":"300.325","GP_ID":"191234727","RCS_SIZE":"LARGE","TLE_LINE1":"1 48035U 21024BL  21340.91667824  .00020490  11256-4  74616-4 0  9994","OBJECT_ID":"2021-024BL","SITE":"AFETR"},{"NORAD_CAT_ID":"48036","OBJECT_NAME":"STARLINK-2295","MEAN_MOTION_DOT":"-0.00003791","ELEMENT_SET_NO":"999","EPHEMERIS_TYPE":"0","COUNTRY_CODE":"US","INCLINATION":"53.0545","LAUNCH_DATE":"2021-03-24","OBJECT_TYPE":"PAYLOAD","ECCENTRICITY":"0.00015280","MEAN_MOTION":"15.06400679","TLE_LINE2":"2 48036  53.0545 108.7720 0001528  96.6357 263.4806 15.06400679 40373","MEAN_ELEMENT_THEORY":"SGP4","REF_FRAME":"TEME","BSTAR":"-0.00023575000000","SEMIMAJOR_AXIS":"6925.346","MEAN_ANOMALY":"263.4806","MEAN_MOTION_DDOT":"0.0000000000000","REV_AT_EPOCH":"4037","RA_OF_ASC_NODE":"108.7720","EPOCH":"2021-12-06T11:20:58.393248","FILE":"3234035","CENTER_NAME":"EARTH","OBJECT_ID":"2021-024BM","SITE":"AFETR","TLE_LINE1":"1 48036U 21024BM  21340.47289807 -.00003791  00000-0 -23575-3 0  9992","RCS_SIZE":"LARGE","GP_ID":"191205875","APOAPSIS":"548.270","PERIOD":"95.592","CLASSIFICATION_TYPE":"U","TIME_SYSTEM":"UTC","PERIAPSIS":"546.153","DECAY_DATE":null,"ARG_OF_PERICENTER":"96.6357"},{"MEAN_MOTION":"15.06397431","TLE_LINE2":"2 48092  53.0542 231.7639 0002991  63.0754 297.0540 15.06397431 39278","MEAN_ELEMENT_THEORY":"SGP4","ECCENTRICITY":"0.00029910","MEAN_ANOMALY":"297.0540","REV_AT_EPOCH":"3927","MEAN_MOTION_DDOT":"0.0000000000000","BSTAR":"0.00000719540000","REF_FRAME":"TEME","SEMIMAJOR_AXIS":"6925.356","OBJECT_NAME":"STARLINK-2048","MEAN_MOTION_DOT":"-0.00000175","NORAD_CAT_ID":"48092","INCLINATION":"53.0542","COUNTRY_CODE":"US","LAUNCH_DATE":"2021-04-07","OBJECT_TYPE":"PAYLOAD","ELEMENT_SET_NO":"999","EPHEMERIS_TYPE":"0","CLASSIFICATION_TYPE":"U","TIME_SYSTEM":"UTC","PERIAPSIS":"545.150","ARG_OF_PERICENTER":"63.0754","DECAY_DATE":null,"EPOCH":"2021-12-06T21:58:31.701216","FILE":"3234296","CENTER_NAME":"EARTH","RA_OF_ASC_NODE":"231.7639","RCS_SIZE":"LARGE","GP_ID":"191235485","APOAPSIS":"549.293","PERIOD":"95.592","SITE":"AFETR","OBJECT_ID":"2021-027A","TLE_LINE1":"1 48092U 21027A   21340.91564469 -.00000175  00000-0  71954-5 0  9994"},{"ELEMENT_SET_NO":"999","EPHEMERIS_TYPE":"0","COUNTRY_CODE":"US","INCLINATION":"53.0565","LAUNCH_DATE":"2021-04-07","OBJECT_TYPE":"PAYLOAD","NORAD_CAT_ID":"48093","OBJECT_NAME":"STARLINK-2404","MEAN_MOTION_DOT":"0.00001595","BSTAR":"0.00012598000000","REF_FRAME":"TEME","SEMIMAJOR_AXIS":"6925.376","MEAN_ANOMALY":"305.8252","REV_AT_EPOCH":"3832","MEAN_MOTION_DDOT":"0.0000000000000","ECCENTRICITY":"0.00020150","TLE_LINE2":"2 48093  53.0565 298.1090 0002015  54.2924 305.8252 15.06391134 38327","MEAN_MOTION":"15.06391134","MEAN_ELEMENT_THEORY":"SGP4","SITE":"AFETR","OBJECT_ID":"2021-027B","TLE_LINE1":"1 48093U 21027B   21340.62031678  .00001595  00000-0  12598-3 0  9997","RCS_SIZE":"LARGE","GP_ID":"191234233","APOAPSIS":"548.636","PERIOD":"95.593","RA_OF_ASC_NODE":"298.1090","EPOCH":"2021-12-06T14:53:15.369792","FILE":"3234296","CENTER_NAME":"EARTH","PERIAPSIS":"545.845","ARG_OF_PERICENTER":"54.2924","DECAY_DATE":null,"CLASSIFICATION_TYPE":"U","TIME_SYSTEM":"UTC"},{"PERIAPSIS":"545.912","DECAY_DATE":null,"ARG_OF_PERICENTER":"60.2570","TIME_SYSTEM":"UTC","CLASSIFICATION_TYPE":"U","APOAPSIS":"548.513","RCS_SIZE":"LARGE","GP_ID":"191205383","PERIOD":"95.592","TLE_LINE1":"1 48094U 21027C   21340.19276150  .00001920  00000-0  14777-3 0  9999","OBJECT_ID":"2021-027C","SITE":"AFETR","FILE":"3234035","EPOCH":"2021-12-06T04:37:34.593600","CENTER_NAME":"EARTH","RA_OF_ASC_NODE":"310.0312","MEAN_ANOMALY":"299.8605","REV_AT_EPOCH":"3812","MEAN_MOTION_DDOT":"0.0000000000000","SEMIMAJOR_AXIS":"6925.347","BSTAR":"0.00014777000000","REF_FRAME":"TEME","MEAN_ELEMENT_THEORY":"SGP4","TLE_LINE2":"2 48094  53.0552 310.0312 0001878  60.2570 299.8605 15.06400480 38122","MEAN_MOTION":"15.06400480","ECCENTRICITY":"0.00018780","INCLINATION":"53.0552","COUNTRY_CODE":"US","OBJECT_TYPE":"PAYLOAD","LAUNCH_DATE":"2021-04-07","ELEMENT_SET_NO":"999","EPHEMERIS_TYPE":"0","MEAN_MOTION_DOT":"0.00001920","OBJECT_NAME":"STARLINK-2412","NORAD_CAT_ID":"48094"},{"ELEMENT_SET_NO":"999","EPHEMERIS_TYPE":"0","INCLINATION":"53.0558","COUNTRY_CODE":"US","OBJECT_TYPE":"PAYLOAD","LAUNCH_DATE":"2021-04-07","NORAD_CAT_ID":"48095","MEAN_MOTION_DOT":"0.00000350","OBJECT_NAME":"STARLINK-2414","SEMIMAJOR_AXIS":"6925.348","BSTAR":"0.00004241200000","REF_FRAME":"TEME","MEAN_ANOMALY":"310.1193","REV_AT_EPOCH":"3813","MEAN_MOTION_DDOT":"0.0000000000000","ECCENTRICITY":"0.00019780","MEAN_ELEMENT_THEORY":"SGP4","MEAN_MOTION":"15.06400136","TLE_LINE2":"2 48095  53.0558 310.0044 0001978  49.9969 310.1193 15.06400136 38136","TLE_LINE1":"1 48095U 21027D   21340.20013491  .00000350  00000-0  42412-4 0  9993","OBJECT_ID":"2021-027D","SITE":"AFETR","APOAPSIS":"548.583","RCS_SIZE":"LARGE","GP_ID":"191206633","PERIOD":"95.592","RA_OF_ASC_NODE":"310.0044","FILE":"3234035","EPOCH":"2021-12-06T04:48:11.656224","CENTER_NAME":"EARTH","PERIAPSIS":"545.843","DECAY_DATE":null,"ARG_OF_PERICENTER":"49.9969","TIME_SYSTEM":"UTC","CLASSIFICATION_TYPE":"U"},{"TLE_LINE2":"2 48096  53.0561 306.8444 0001921  58.1907 301.9268 15.06400688 38223","MEAN_MOTION":"15.06400688","MEAN_ELEMENT_THEORY":"SGP4","ECCENTRICITY":"0.00019210","MEAN_ANOMALY":"301.9268","MEAN_MOTION_DDOT":"0.0000000000000","REV_AT_EPOCH":"3822","REF_FRAME":"TEME","BSTAR":"0.00013262000000","SEMIMAJOR_AXIS":"6925.346","OBJECT_NAME":"STARLINK-2417","MEAN_MOTION_DOT":"0.00001694","NORAD_CAT_ID":"48096","COUNTRY_CODE":"US","INCLINATION":"53.0561","LAUNCH_DATE":"2021-04-07","OBJECT_TYPE":"PAYLOAD","ELEMENT_SET_NO":"999","EPHEMERIS_TYPE":"0","CLASSIFICATION_TYPE":"U","TIME_SYSTEM":"UTC","PERIAPSIS":"545.881","ARG_OF_PERICENTER":"58.1907","DECAY_DATE":null,"EPOCH":"2021-12-06T21:41:58.723296","FILE":"3234296","CENTER_NAME":"EARTH","RA_OF_ASC_NODE":"306.8444","GP_ID":"191235986","RCS_SIZE":"LARGE","APOAPSIS":"548.542","PERIOD":"95.592","OBJECT_ID":"2021-027E","SITE":"AFETR","TLE_LINE1":"1 48096U 21027E   21340.90415189  .00001694  00000-0  13262-3 0  9993"},{"TIME_SYSTEM":"UTC","CLASSIFICATION_TYPE":"U","ARG_OF_PERICENTER":"54.3734","DECAY_DATE":null,"PERIAPSIS":"545.431","CENTER_NAME":"EARTH","FILE":"3234226","EPOCH":"2021-12-06T13:15:06.077088","RA_OF_ASC_NODE":"288.4114","PERIOD":"95.593","APOAPSIS":"549.083","GP_ID":"191211690","RCS_SIZE":"LARGE","TLE_LINE1":"1 48097U 21027F   21340.55215367  .00000335  00000-0  41408-4 0  9996","OBJECT_ID":"2021-027F","SITE":"AFETR","MEAN_ELEMENT_THEORY":"SGP4","TLE_LINE2":"2 48097  53.0562 288.4114 0002637  54.3734 305.7500 15.06385760 38050","MEAN_MOTION":"15.06385760","ECCENTRICITY":"0.00026370","REV_AT_EPOCH":"3805","MEAN_MOTION_DDOT":"0.0000000000000","MEAN_ANOMALY":"305.7500","SEMIMAJOR_AXIS":"6925.392","BSTAR":"0.00004140800000","REF_FRAME":"TEME","MEAN_MOTION_DOT":"0.00000335","OBJECT_NAME":"STARLINK-2418","NORAD_CAT_ID":"48097","OBJECT_TYPE":"PAYLOAD","LAUNCH_DATE":"2021-04-07","INCLINATION":"53.0562","COUNTRY_CODE":"US","EPHEMERIS_TYPE":"0","ELEMENT_SET_NO":"999"},{"DECAY_DATE":null,"ARG_OF_PERICENTER":"56.5135","PERIAPSIS":"545.891","CLASSIFICATION_TYPE":"U","TIME_SYSTEM":"UTC","OBJECT_ID":"2021-027G","SITE":"AFETR","TLE_LINE1":"1 48098U 21027G   21340.59545932 -.00000128  00000-0  10298-4 0  9999","PERIOD":"95.593","RCS_SIZE":"LARGE","GP_ID":"191234484","APOAPSIS":"548.616","RA_OF_ASC_NODE":"298.2248","CENTER_NAME":"EARTH","EPOCH":"2021-12-06T14:17:27.685248","FILE":"3234296","REF_FRAME":"TEME","BSTAR":"0.00001029800000","SEMIMAJOR_AXIS":"6925.389","MEAN_MOTION_DDOT":"0.0000000000000","REV_AT_EPOCH":"3831","MEAN_ANOMALY":"303.6042","ECCENTRICITY":"0.00019680","TLE_LINE2":"2 48098  53.0569 298.2248 0001968  56.5135 303.6042 15.06386952 38311","MEAN_MOTION":"15.06386952","MEAN_ELEMENT_THEORY":"SGP4","EPHEMERIS_TYPE":"0","ELEMENT_SET_NO":"999","LAUNCH_DATE":"2021-04-07","OBJECT_TYPE":"PAYLOAD","COUNTRY_CODE":"US","INCLINATION":"53.0569","NORAD_CAT_ID":"48098","OBJECT_NAME":"STARLINK-2421","MEAN_MOTION_DOT":"-0.00000128"},{"REV_AT_EPOCH":"3818","MEAN_MOTION_DDOT":"0.0000000000000","MEAN_ANOMALY":"302.9905","SEMIMAJOR_AXIS":"6925.348","BSTAR":"0.00013543000000","REF_FRAME":"TEME","MEAN_ELEMENT_THEORY":"SGP4","TLE_LINE2":"2 48099  53.0564 307.9669 0001950  57.1271 302.9905 15.06400099 38185","MEAN_MOTION":"15.06400099","ECCENTRICITY":"0.00019500","OBJECT_TYPE":"PAYLOAD","LAUNCH_DATE":"2021-04-07","INCLINATION":"53.0564","COUNTRY_CODE":"US","EPHEMERIS_TYPE":"0","ELEMENT_SET_NO":"999","MEAN_MOTION_DOT":"0.00001736","OBJECT_NAME":"STARLINK-2428","NORAD_CAT_ID":"48099","DECAY_DATE":null,"ARG_OF_PERICENTER":"57.1271","PERIAPSIS":"545.863","TIME_SYSTEM":"UTC","CLASSIFICATION_TYPE":"U","PERIOD":"95.592","APOAPSIS":"548.564","RCS_SIZE":"LARGE","GP_ID":"191235736","TLE_LINE1":"1 48099U 21027H   21340.64981894  .00001736  00000-0  13543-3 0  9997","SITE":"AFETR","OBJECT_ID":"2021-027H","CENTER_NAME":"EARTH","FILE":"3234296","EPOCH":"2021-12-06T15:35:44.356416","RA_OF_ASC_NODE":"307.9669"}];
